IRIDIUM 7               
1 24793U 97020B   25077.44505594  .00001316  00000+0  44832-3 0  9994
2 24793  86.3991 214.8864 0002300  89.4221 270.7240 14.35823036458876
IRIDIUM 5               
1 24795U 97020D   25077.54569190  .00010993  00000+0  92522-3 0  9999
2 24795  86.3880 125.5130 0114094 103.4402 257.9572 14.93107762471966
IRIDIUM 914             
1 24836U 97030A   25077.46367202  .00001635  00000+0  50582-3 0  9990
2 24836  86.3954 220.6895 0003143 121.9077 238.2429 14.40730205594060
IRIDIUM 16              
1 24841U 97030F   25077.49637432  .00001374  00000+0  44282-3 0  9994
2 24841  86.3998 243.3567 0003109  45.6321 314.5131 14.38576997453962
IRIDIUM 911             
1 24842U 97030G   25077.49321131  .00001853  00000+0  49875-3 0  9996
2 24842  86.4426 242.2219 0015605  46.3490 313.9004 14.47452495461968
IRIDIUM 17              
1 24870U 97034B   25077.56671590  .00001155  00000+0  37812-3 0  9999
2 24870  86.3895 272.8776 0001433  37.8704 322.2594 14.37687661450567
